ONEWEB-0572             
1 55151U 23004M   25355.14528231 -.00000005  00000+0 -46610-4 0  9999
2 55151  87.9118  41.2685 0001618 104.2840 255.8471 13.17648535144031
ONEWEB-0573             
1 55152U 23004N   25355.03218229  .00000049  00000+0  92081-4 0  9990
2 55152  87.9156  10.8689 0001004 102.9208 257.2036 13.18685251146214
ONEWEB-0588             
1 55153U 23004P   25355.10147367  .00000005  00000+0 -21176-4 0  9993
2 55153  87.9165  10.8510 0001417 103.1598 256.9693 13.18686484146226
ONEWEB-0598             
1 55154U 23004Q   25355.15987814  .00000489  00000+0  13444-2 0  9990
2 55154  87.8850  56.5257 0001312  83.4214 276.7063 13.11415904142565
ONEWEB-0599             
1 55155U 23004R   25355.10646997  .00000076  00000+0  16155-3 0  9995
2 55155  87.9101  41.2775 0001774  91.7133 268.4201 13.17647968144035
ONEWEB-0614             
1 55156U 23004S   25355.15480639  .00000534  00000+0  14696-2 0  9996
2 55156  87.8849  56.5356 0001801 112.6276 247.5042 13.11417802142507
ONEWEB-0616             
1 55157U 23004T   25355.14865242  .00000103  00000+0  23290-3 0  9996
2 55157  87.9110  41.2610 0002494  80.6476 279.4938 13.17648320144258
ONEWEB-0617             
1 55158U 23004U   25355.14293913 -.00000143  00000+0 -43937-3 0  9993
2 55158  87.8852  56.5171 0001575 113.7258 246.4036 13.11417729142529
ONEWEB-0618             
1 55159U 23004V   25355.17391084  .00005069  00000+0  30272-3 0  9993
2 55159  86.9095 249.8181 0010646 227.5234 132.5106 15.10845777155362
ONEWEB-0619             
1 55160U 23004W   25355.18070337  .00000069  00000+0  14413-3 0  9995
2 55160  87.9108  41.2292 0002255 103.3036 256.8347 13.17650979144150
ONEWEB-0620             
1 55161U 23004X   25355.13783853 -.00000670  00000+0 -19253-2 0  9991
2 55161  87.8842  56.5378 0001472 103.5443 256.5849 13.11418706142496
ONEWEB-0621             
1 55162U 23004Y   25354.93608858  .00000700  00000+0  19387-2 0  9990
2 55162  87.8846  56.5492 0001634 115.9027 244.2269 13.11416666142441
ONEWEB-0622             
1 55163U 23004Z   25354.94117661  .00000574  00000+0  15833-2 0  9990
2 55163  87.8848  56.5568 0001628 128.8953 231.2321 13.11417228142431
ONEWEB-0623             
1 55164U 23004AA  25355.17565096  .00000050  00000+0  95510-4 0  9997
2 55164  87.9099  41.2780 0002163 120.5015 239.6330 13.17647810144141
ONEWEB-0624             
1 55165U 23004AB  25355.01781262  .00000207  00000+0  53753-3 0  9992
2 55165  87.8927  26.0109 0001859 105.3271 254.8063 13.12922017144695
ONEWEB-0625             
1 55166U 23004AC  25355.16552082  .00000026  00000+0  32844-4 0  9993
2 55166  87.9102  41.2759 0001950  94.4638 265.6716 13.17649422144134
ONEWEB-0626             
1 55167U 23004AD  25355.15539108 -.00000918  00000+0 -23964-2 0  9990
2 55167  87.9097  41.2772 0001507  87.2347 272.8957 13.17655336144136
