[{"OBJECT_NAME":"ONEWEB-0572","OBJECT_ID":"2023-004M","EPOCH":"2025-12-21T03:29:12.391584","MEAN_MOTION":13.17648535,"ECCENTRICITY":0.0001618,"INCLINATION":87.9118,"RA_OF_ASC_NODE":41.2685,"ARG_OF_PERICENTER":104.284,"MEAN_ANOMALY":255.8471,"EPHEMERIS_TYPE":0,"CLASSIFICATION_TYPE":"U","NORAD_CAT_ID":55151,"ELEMENT_SET_NO":999,"REV_AT_EPOCH":14403,"BSTAR":-4.661e-5,"MEAN_MOTION_DOT":-5.0e-8,"MEAN_MOTION_DDOT":0},{"OBJECT_NAME":"ONEWEB-0573","OBJECT_ID":"2023-004N","EPOCH":"2025-12-21T00:46:20.549856","MEAN_MOTION":13.18685251,"ECCENTRICITY":0.0001004,"INCLINATION":87.9156,"RA_OF_ASC_NODE":10.8689,"ARG_OF_PERICENTER":102.9208,"MEAN_ANOMALY":257.2036,"EPHEMERIS_TYPE":0,"CLASSIFICATION_TYPE":"U","NORAD_CAT_ID":55152,"ELEMENT_SET_NO":999,"REV_AT_EPOCH":14621,"BSTAR":9.2081e-5,"MEAN_MOTION_DOT":4.9e-7,"MEAN_MOTION_DDOT":0},{"OBJECT_NAME":"ONEWEB-0588","OBJECT_ID":"2023-004P","EPOCH":"2025-12-21T02:26:07.325088","MEAN_MOTION":13.18686484,"ECCENTRICITY":0.0001417,"INCLINATION":87.9165,"RA_OF_ASC_NODE":10.851,"ARG_OF_PERICENTER":103.1598,"MEAN_ANOMALY":256.9693,"EPHEMERIS_TYPE":0,"CLASSIFICATION_TYPE":"U","NORAD_CAT_ID":55153,"ELEMENT_SET_NO":999,"REV_AT_EPOCH":14622,"BSTAR":-2.1176e-5,"MEAN_MOTION_DOT":5.0e-8,"MEAN_MOTION_DDOT":0},{"OBJECT_NAME":"ONEWEB-0598","OBJECT_ID":"2023-004Q","EPOCH":"2025-12-21T03:50:13.471296","MEAN_MOTION":13.11415904,"ECCENTRICITY":0.0001312,"INCLINATION":87.885,"RA_OF_ASC_NODE":56.5257,"ARG_OF_PERICENTER":83.4214,"MEAN_ANOMALY":276.7063,"EPHEMERIS_TYPE":0,"CLASSIFICATION_TYPE":"U","NORAD_CAT_ID":55154,"ELEMENT_SET_NO":999,"REV_AT_EPOCH":14256,"BSTAR":0.0013444,"MEAN_MOTION_DOT":4.89e-6,"MEAN_MOTION_DDOT":0},{"OBJECT_NAME":"ONEWEB-0599","OBJECT_ID":"2023-004R","EPOCH":"2025-12-21T02:33:19.005408","MEAN_MOTION":13.17647968,"ECCENTRICITY":0.0001774,"INCLINATION":87.9101,"RA_OF_ASC_NODE":41.2775,"ARG_OF_PERICENTER":91.7133,"MEAN_ANOMALY":268.4201,"EPHEMERIS_TYPE":0,"CLASSIFICATION_TYPE":"U","NORAD_CAT_ID":55155,"ELEMENT_SET_NO":999,"REV_AT_EPOCH":14403,"BSTAR":0.00016155,"MEAN_MOTION_DOT":7.6e-7,"MEAN_MOTION_DDOT":0},{"OBJECT_NAME":"ONEWEB-0614","OBJECT_ID":"2023-004S","EPOCH":"2025-12-21T03:42:55.272096","MEAN_MOTION":13.11417802,"ECCENTRICITY":0.0001801,"INCLINATION":87.8849,"RA_OF_ASC_NODE":56.5356,"ARG_OF_PERICENTER":112.6276,"MEAN_ANOMALY":247.5042,"EPHEMERIS_TYPE":0,"CLASSIFICATION_TYPE":"U","NORAD_CAT_ID":55156,"ELEMENT_SET_NO":999,"REV_AT_EPOCH":14250,"BSTAR":0.0014696,"MEAN_MOTION_DOT":5.34e-6,"MEAN_MOTION_DDOT":0},{"OBJECT_NAME":"ONEWEB-0616","OBJECT_ID":"2023-004T","EPOCH":"2025-12-21T03:34:03.569088","MEAN_MOTION":13.1764832,"ECCENTRICITY":0.0002494,"INCLINATION":87.911,"RA_OF_ASC_NODE":41.261,"ARG_OF_PERICENTER":80.6476,"MEAN_ANOMALY":279.4938,"EPHEMERIS_TYPE":0,"CLASSIFICATION_TYPE":"U","NORAD_CAT_ID":55157,"ELEMENT_SET_NO":999,"REV_AT_EPOCH":14425,"BSTAR":0.0002329,"MEAN_MOTION_DOT":1.03e-6,"MEAN_MOTION_DDOT":0},{"OBJECT_NAME":"ONEWEB-0617","OBJECT_ID":"2023-004U","EPOCH":"2025-12-21T03:25:49.940832","MEAN_MOTION":13.11417729,"ECCENTRICITY":0.0001575,"INCLINATION":87.8852,"RA_OF_ASC_NODE":56.5171,"ARG_OF_PERICENTER":113.7258,"MEAN_ANOMALY":246.4036,"EPHEMERIS_TYPE":0,"CLASSIFICATION_TYPE":"U","NORAD_CAT_ID":55158,"ELEMENT_SET_NO":999,"REV_AT_EPOCH":14252,"BSTAR":-0.00043937,"MEAN_MOTION_DOT":-1.43e-6,"MEAN_MOTION_DDOT":0},{"OBJECT_NAME":"ONEWEB-0618","OBJECT_ID":"2023-004V","EPOCH":"2025-12-21T04:10:25.896576","MEAN_MOTION":15.10845777,"ECCENTRICITY":0.0010646,"INCLINATION":86.9095,"RA_OF_ASC_NODE":249.8181,"ARG_OF_PERICENTER":227.5234,"MEAN_ANOMALY":132.5106,"EPHEMERIS_TYPE":0,"CLASSIFICATION_TYPE":"U","NORAD_CAT_ID":55159,"ELEMENT_SET_NO":999,"REV_AT_EPOCH":15536,"BSTAR":0.00030272,"MEAN_MOTION_DOT":5.069e-5,"MEAN_MOTION_DDOT":0},{"OBJECT_NAME":"ONEWEB-0619","OBJECT_ID":"2023-004W","EPOCH":"2025-12-21T04:20:12.771168","MEAN_MOTION":13.17650979,"ECCENTRICITY":0.0002255,"INCLINATION":87.9108,"RA_OF_ASC_NODE":41.2292,"ARG_OF_PERICENTER":103.3036,"MEAN_ANOMALY":256.8347,"EPHEMERIS_TYPE":0,"CLASSIFICATION_TYPE":"U","NORAD_CAT_ID":55160,"ELEMENT_SET_NO":999,"REV_AT_EPOCH":14415,"BSTAR":0.00014413,"MEAN_MOTION_DOT":6.9e-7,"MEAN_MOTION_DDOT":0},{"OBJECT_NAME":"ONEWEB-0620","OBJECT_ID":"2023-004X","EPOCH":"2025-12-21T03:18:29.248992","MEAN_MOTION":13.11418706,"ECCENTRICITY":0.0001472,"INCLINATION":87.8842,"RA_OF_ASC_NODE":56.5378,"ARG_OF_PERICENTER":103.5443,"MEAN_ANOMALY":256.5849,"EPHEMERIS_TYPE":0,"CLASSIFICATION_TYPE":"U","NORAD_CAT_ID":55161,"ELEMENT_SET_NO":999,"REV_AT_EPOCH":14249,"BSTAR":-0.0019253,"MEAN_MOTION_DOT":-6.7e-6,"MEAN_MOTION_DDOT":0},{"OBJECT_NAME":"ONEWEB-0621","OBJECT_ID":"2023-004Y","EPOCH":"2025-12-20T22:27:58.053312","MEAN_MOTION":13.11416666,"ECCENTRICITY":0.0001634,"INCLINATION":87.8846,"RA_OF_ASC_NODE":56.5492,"ARG_OF_PERICENTER":115.9027,"MEAN_ANOMALY":244.2269,"EPHEMERIS_TYPE":0,"CLASSIFICATION_TYPE":"U","NORAD_CAT_ID":55162,"ELEMENT_SET_NO":999,"REV_AT_EPOCH":14244,"BSTAR":0.0019387,"MEAN_MOTION_DOT":7.0e-6,"MEAN_MOTION_DDOT":0},{"OBJECT_NAME":"ONEWEB-0622","OBJECT_ID":"2023-004Z","EPOCH":"2025-12-20T22:35:17.659104","MEAN_MOTION":13.11417228,"ECCENTRICITY":0.0001628,"INCLINATION":87.8848,"RA_OF_ASC_NODE":56.5568,"ARG_OF_PERICENTER":128.8953,"MEAN_ANOMALY":231.2321,"EPHEMERIS_TYPE":0,"CLASSIFICATION_TYPE":"U","NORAD_CAT_ID":55163,"ELEMENT_SET_NO":999,"REV_AT_EPOCH":14243,"BSTAR":0.0015833,"MEAN_MOTION_DOT":5.74e-6,"MEAN_MOTION_DDOT":0},{"OBJECT_NAME":"ONEWEB-0623","OBJECT_ID":"2023-004AA","EPOCH":"2025-12-21T04:12:56.242944","MEAN_MOTION":13.1764781,"ECCENTRICITY":0.0002163,"INCLINATION":87.9099,"RA_OF_ASC_NODE":41.278,"ARG_OF_PERICENTER":120.5015,"MEAN_ANOMALY":239.633,"EPHEMERIS_TYPE":0,"CLASSIFICATION_TYPE":"U","NORAD_CAT_ID":55164,"ELEMENT_SET_NO":999,"REV_AT_EPOCH":14414,"BSTAR":9.551e-5,"MEAN_MOTION_DOT":5.0e-7,"MEAN_MOTION_DDOT":0},{"OBJECT_NAME":"ONEWEB-0624","OBJECT_ID":"2023-004AB","EPOCH":"2025-12-21T00:25:39.010368","MEAN_MOTION":13.12922017,"ECCENTRICITY":0.0001859,"INCLINATION":87.8927,"RA_OF_ASC_NODE":26.0109,"ARG_OF_PERICENTER":105.3271,"MEAN_ANOMALY":254.8063,"EPHEMERIS_TYPE":0,"CLASSIFICATION_TYPE":"U","NORAD_CAT_ID":55165,"ELEMENT_SET_NO":999,"REV_AT_EPOCH":14469,"BSTAR":0.00053753,"MEAN_MOTION_DOT":2.07e-6,"MEAN_MOTION_DDOT":0},{"OBJECT_NAME":"ONEWEB-0625","OBJECT_ID":"2023-004AC","EPOCH":"2025-12-21T03:58:20.998848","MEAN_MOTION":13.17649422,"ECCENTRICITY":0.000195,"INCLINATION":87.9102,"RA_OF_ASC_NODE":41.2759,"ARG_OF_PERICENTER":94.4638,"MEAN_ANOMALY":265.6716,"EPHEMERIS_TYPE":0,"CLASSIFICATION_TYPE":"U","NORAD_CAT_ID":55166,"ELEMENT_SET_NO":999,"REV_AT_EPOCH":14413,"BSTAR":3.2844e-5,"MEAN_MOTION_DOT":2.6e-7,"MEAN_MOTION_DDOT":0},{"OBJECT_NAME":"ONEWEB-0626","OBJECT_ID":"2023-004AD","EPOCH":"2025-12-21T03:43:45.789312","MEAN_MOTION":13.17655336,"ECCENTRICITY":0.0001507,"INCLINATION":87.9097,"RA_OF_ASC_NODE":41.2772,"ARG_OF_PERICENTER":87.2347,"MEAN_ANOMALY":272.8957,"EPHEMERIS_TYPE":0,"CLASSIFICATION_TYPE":"U","NORAD_CAT_ID":55167,"ELEMENT_SET_NO":999,"REV_AT_EPOCH":14413,"BSTAR":-0.0023964,"MEAN_MOTION_DOT":-9.18e-6,"MEAN_MOTION_DDOT":0}]
